CUTE-1 (CO-55)          
1 27844U 03031E   20180.89953381  .00000026  00000-0  31279-4 0  9993
2 27844  98.6809 188.4617 0010437  29.1734 331.0025 14.22244174881724
CUBESAT XI-IV (CO-57)   
1 27848U 03031J   20181.28137564  .00000021  00000-0  29517-4 0  9995
2 27848  98.6875 189.3957 0010520  39.6440 320.5505 14.21830325881657
CUBESAT XI-V            
1 28895U 05043F   20181.30818882  .00000086  00000-0  25375-4 0  9994
2 28895  98.0114 317.3322 0015582 240.8494 119.1150 14.63778810782572
CUTE-1.7+APD II (CO-65) 
1 32785U 08021C   20181.29771105  .00000136  00000-0  20199-4 0  9995
2 32785  97.5729 168.7934 0014664  93.5627 266.7267 14.88481757659703
AAUSAT-II               
1 32788U 08021F   20181.29881381  .00000669  00000-0  65993-4 0  9998
2 32788  97.4907 185.2711 0012345  24.2058 335.9741 14.95079175661189
DELFI-C3 (DO-64)        
1 32789U 08021G   20180.61672325  .00000776  00000-0  54659-4 0  9996
2 32789  97.4171 223.0282 0010274 278.7493  81.2571 15.07759954663598
SEEDS II (CO-66)        
1 32791U 08021J   20180.40576328  .00000287  00000-0  34239-4 0  9991
2 32791  97.5405 174.0726 0014817  68.6911 291.5888 14.91062697660012
SWISSCUBE               
1 35932U 09051B   20181.23979633  .00000094  00000-0  32323-4 0  9991
2 35932  98.6106   3.9015 0008865  91.2557 268.9656 14.56401925571583
BEESAT-1                
1 35933U 09051C   20180.80934791  .00000069  00000-0  26673-4 0  9993
2 35933  98.6103   5.3225 0007004 103.0283 257.1696 14.56476508571552
ITUPSAT1                
1 35935U 09051E   20180.74203344  .00000060  00000-0  24974-4 0  9994
2 35935  98.6209   5.4516 0009319 103.0440 257.1798 14.55621961571312
TISAT 1                 
1 36799U 10035E   20180.70857669  .00000188  00000-0  25052-4 0  9997
2 36799  98.1951 351.4144 0010933 296.1640  63.8452 14.91371310540608
M-CUBED & EXP-1 PRIME   
1 37855U 11061F   20180.86843051  .00000749  00000-0  44687-4 0  9996
2 37855 101.7139 275.1577 0170808  41.1052 320.2884 15.06348009473392
AEROCUBE 4.5A           
1 38767U 12048K   20181.14026704  .00000034  00000-0  18337-4 0  9995
2 38767  64.6647 199.7747 0139792 132.3423 228.9630 14.92304607 43541
AEROCUBE 4.5B           
1 38768U 12048L   20180.92028052  .00000150  00000-0  26075-4 0  9996
2 38768  64.6655 168.8073 0128769 128.1942 233.0853 14.95976715 43598
STRAND-1                
1 39090U 13009E   20180.51347688  .00000013  00000-0  19810-4 0  9994
2 39090  98.4557  24.4981 0007966 249.5374 110.4956 14.35135071384271
SOMP                    
1 39134U 13015E   20180.88218214  .00000582  00000-0  35122-4 0  9997
2 39134  64.8622 240.8011 0032374 241.5581 118.2284 15.21088167397410
BEESAT-3                
1 39135U 13015F   20180.70367360  .00000607  00000-0  39034-4 0  9990
2 39135  64.8672 265.0774 0035707 244.5821 115.1609 15.18205709396925
BEESAT-2                
1 39136U 13015G   20180.75580964  .00000509  00000-0  34928-4 0  9991
2 39136  64.8706 269.9189 0031470 278.4011  81.3548 15.17590506397228
NEE-01 PEGASO           
1 39151U 13018B   20181.23139850  .00000074  00000-0  16671-4 0  9991
2 39151  97.9739 279.9656 0018304  64.8343 295.4764 14.80176783387429
ESTCUBE 1               
1 39161U 13021C   20181.24152159  .00000113  00000-0  25616-4 0  9997
2 39161  97.9644 264.0360 0008966 194.9899 165.1043 14.72326845383770
POPACS 1                
1 39268U 13055D   20181.25644827  .00004236  00000-0  11539-3 0  9999
2 39268  81.0021 283.6802 0616803 187.0882 172.1286 14.39345723351163
POPACS 2                
1 39269U 13055E   20180.80628226  .00000678  00000-0  19329-4 0  9997
2 39269  81.0147 322.4260 0676753 287.6643  65.1780 14.25494052348829
POPACS 3                
1 39270U 13055F   20180.49090419  .00001086  00000-0  33151-4 0  9994
2 39270  81.0159 344.5688 0709695 351.2267   7.7006 14.16918763326699
ZACUBE-1 (TSHEPISOSAT)  
1 39417U 13066B   20180.98364343  .00000135  00000-0  23441-4 0  9998
2 39417  97.5645 178.3653 0057425 239.3495 120.2050 14.81284651356748
WNISAT-1                
1 39423U 13066H   20181.57446546  .00000029  00000-0  15864-4 0  9999
2 39423  97.8012 102.2334 0174247 217.5057 141.3888 14.53123670350189
TRITON-1                
1 39427U 13066M   20181.47471068  .00000179  00000-0  36237-4 0  9992
2 39427  97.7243 141.7302 0114851  39.9379 321.0189 14.68011594353629
GOMX-1                  
1 39430U 13066Q   20181.46097773  .00000092  00000-0  25418-4 0  9995
2 39430  97.7918 119.2650 0151556 146.3172 214.7769 14.59406198351555
CUBEBUG-2 (LO-74)       
1 39440U 13066AA  20180.87844820  .00000132  00000-0  25549-4 0  9993
2 39440  97.6311 162.7484 0078776 303.8281  55.5447 14.76020827354268
NEE-02 KRYSAOR          
1 39441U 13066AB  20180.89778303  .00000077  00000-0  18246-4 0  9992
2 39441  97.6384 160.2784 0080514 312.8614  46.5851 14.75023814354096
FUNCUBE-1 (AO-73)       
1 39444U 13066AE  20180.90726787  .00000188  00000-0  29410-4 0  9994
2 39444  97.5587 180.5303 0056625 231.5417 128.0709 14.82139490355061
UWE-3                   
1 39446U 13066AG  20180.91512022  .00000129  00000-0  23897-4 0  9990
2 39446  97.5983 169.9640 0068302 272.5415  86.7979 14.78554732354261
AEROCUBE 5A             
1 39465U 13072D   20180.88689072  .00001884  00000-0  18540-3 0  9991
2 39465 120.4924 204.5644 0256026 256.2445 100.9989 14.76500002 43058
AEROCUBE 5B             
1 39466U 13072E   20180.88700502  .00001866  00000-0  15773-3 0  9999
2 39466 120.4875 241.9590 0228357 265.5678  91.9259 14.86127150 43279
BRITE-CA1 (TORONTO)     
1 40020U 14033L   20181.21525594  .00000013  00000-0  10534-4 0  9993
2 40020  97.7308   8.7525 0088239  35.9886 324.7217 14.66649069322495
DUCHIFAT-1              
1 40021U 14033M   20181.29289910  .00000353  00000-0  41654-4 0  9995
2 40021  97.9429 112.6017 0011389 246.6938 113.3082 14.90919259327657
NANOSATC-BR1            
1 40024U 14033Q   20180.78519335  .00000114  00000-0  17757-4 0  9990
2 40024  97.9276 108.4352 0010655 253.5444 106.4602 14.90086403327443
QB50P1                  
1 40025U 14033R   20180.74339500  .00000194  00000-0  26571-4 0  9993
2 40025  97.9152 105.0519 0010921 262.0172  97.9806 14.89147692326775
QB50P2                  
1 40032U 14033Y   20181.06518084  .00000165  00000-0  23700-4 0  9992
2 40032  97.9038 102.8182 0010326 257.3041 102.7021 14.88673164327231
PERSEUS-M2              
1 40037U 14033AD  20180.77226399  .00000024  00000-0  88976-5 0  9990
2 40037  97.8886  97.0361 0012916 276.3045  83.6699 14.86547746326840
PERSEUS-M1              
1 40039U 14033AF  20180.85206418  .00000014  00000-0  78719-5 0  9994
2 40039  97.8850  95.8774 0012757 273.7778  86.1978 14.86168496326269
POLYITAN-1              
1 40042U 14033AJ  20181.07731307  .00000188  00000-0  26044-4 0  9998
2 40042  97.9237 105.9224 0013124 250.7173 109.2625 14.88895306327232
TIGRISAT                
1 40043U 14033AK  20181.16170779  .00000076  00000-0  18598-4 0  9990
2 40043  97.7088  36.8522 0059006 322.1051  37.6011 14.74384866324077
AEROCUBE 6A             
1 40045U 14033AM  20181.14599474  .00000101  00000-0  21854-4 0  9995
2 40045  97.7342  42.3779 0056650 313.6117  46.0400 14.75584065324078
AEROCUBE 6B             
1 40046U 14033AN  20180.88468661  .00000200  00000-0  35956-4 0  9997
2 40046  97.7251  41.3875 0055899 313.4386  46.2179 14.75574751323798
UKUBE-1                 
1 40074U 14037F   20181.50105734  .00000150  00000-0  25116-4 0  9992
2 40074  98.4550  10.5566 0005616  81.8625 278.3262 14.84277409323542
BRITE-PL2 (HEWELIUSZ)   
1 40119U 14049B   20180.84587919  .00000073  00000-0  15099-4 0  9993
2 40119  97.8952 272.9530 0018795  73.6439 286.6840 14.84512374317382
FIREBIRD 4              
1 40378U 15003C   20181.29273468  .00000774  00000-0  33916-4 0  9998
2 40378  99.0943 244.0192 0122654 274.4707  84.2520 15.20117148299114
GRIFEX                  
1 40379U 15003D   20181.09342733  .00000528  00000-0  26687-4 0  9993
2 40379  99.1011 235.6293 0131723 300.5935  58.2354 15.16446868298610
EXOCUBE (CP10)          
1 40380U 15003E   20181.17866521  .00000488  00000-0  26157-4 0  9997
2 40380  99.1081 231.3528 0136948 315.2554  43.7689 15.14400613298332
AEROCUBE 8A             
1 40659U 15025J   20180.86820542  .00009912  00000-0  10794-3 0  9998
2 40659  55.0156 240.0932 0103273 203.9755 155.6455 15.57849932 45334
AEROCUBE 8B             
1 40660U 15025K   20180.71515085  .00010498  00000-0  11272-3 0  9990
2 40660  55.0129 238.7057 0102322 205.5812 154.0143 15.58217749 45326
TIANWANG 1C (TW-1C)     
1 40926U 15051B   20181.45742940  .00017606  00000-0  17141-3 0  9997
2 40926  97.0830 233.3129 0006783  58.8363  69.3060 15.66290490268901
TIANWANG 1A (TW-1A)     
1 40928U 15051D   20181.54330931  .00001914  00000-0  45728-4 0  9990
2 40928  97.1083 209.0798 0011825 135.7966  17.3850 15.42666649267235
EXACTVIEW 9             
1 40936U 15052G   20180.51543827  .00000712  00000-0  10511-4 0  9993
2 40936   6.0028 261.4261 0010042  58.9409 301.1704 14.76576455256867
AEROCUBE 5C             
1 40965U 15058B   20180.89202147  .00000008  00000-0  20751-4 0  9994
2 40965  64.7788 109.2801 0168916  69.6451 292.2710 14.74529285 42993
AEROCUBE 7              
1 40966U 15058C   20181.20901236  .00000045  00000-0  25097-4 0  9995
2 40966  64.7789 106.7846 0167862  69.1964 292.7030 14.74830413 43044
ATHENOXAT 1             
1 41168U 15077C   20181.09182529  .00001351  00000-0  34741-4 0  9991
2 41168  14.9893 336.0264 0011433 290.5364  69.3730 15.14401598251117
GALASSIA                
1 41170U 15077E   20180.61111953  .00001337  00000-0  33524-4 0  9996
2 41170  14.9895 331.3644 0012692 310.3838  49.5375 15.14695372251117
VELOX-II                
1 41171U 15077F   20180.73009993  .00001140  00000-0  26717-4 0  9998
2 41171  14.9925  15.3962 0008811 207.6579 152.3273 15.11714932250730
